SBIRS GEO-5 (USA 315)   
1 48618U 21042A   25052.96090584  .00000134  00000+0  00000+0 0  9997
2 48618   5.7652 326.3450 0002265   2.0565 190.5161  1.00272776 13942
FENGYUN 4B              
1 48808U 21047A   25052.59993059 -.00000318  00000+0  00000+0 0  9996
2 48808   0.1646  83.9355 0012868 358.9119  29.3659  1.00264679 13756
SXM-8                   
1 48838U 21049A   25051.88586228 -.00000194  00000+0  00000+0 0  9990
2 48838   0.0165  61.4231 0003756 352.6485 330.7024  1.00270107 13760
TIANLIAN 1-05           
1 49011U 21063A   25053.08308666  .00000117  00000+0  00000+0 0  9996
2 49011   0.3540  79.1748 0003864 227.3415 252.4203  1.00272446 13255
STAR ONE D2             
1 49055U 21069A   25053.06572670 -.00000256  00000+0  00000+0 0  9991
2 49055   0.0201 110.7757 0001101 187.4425 167.6441  1.00272592 13090
EUTELSAT QUANTUM        
1 49056U 21069B   25052.86156169  .00000135  00000+0  00000+0 0  9995
2 49056   0.0570 289.6028 0002202  50.2060 170.0426  1.00272559 13119
ZHONGXING-2E            
1 49062U 21071A   25052.89489360 -.00000282  00000+0  00000+0 0  9994
2 49062   0.0402 290.5375 0000125  55.1075 226.6120  1.00271109 13229
TJS-7                   
1 49115U 21077A   25052.83152523 -.00000114  00000+0  00000+0 0  9995
2 49115   0.1176  91.9802 0000829 164.2623  95.6211  1.00272034  4747
CHINASAT 9B             
1 49125U 21080A   25052.93913328 -.00000303  00000+0  00000+0 0  9999
2 49125   0.0226  97.9931 0001867 219.2282 274.3700  1.00271151 12834
SHIJIAN-21 (SJ-21)      
1 49330U 21094A   25052.92542934 -.00000235  00000+0  00000+0 0  9996
2 49330  10.2802  43.3883 0077457  37.6925 190.7378  1.00251565 12446
SES-17                  
1 49332U 21095A   25051.98169661 -.00000261  00000+0  00000+0 0  9995
2 49332   0.0144  85.2935 0000956 256.9776  95.1713  1.00270152 13026
SYRACUSE 4A             
1 49333U 21095B   25052.98167319  .00000144  00000+0  00000+0 0  9994
2 49333   0.0165 124.0226 0001529 204.2411 222.7600  1.00270184 13145
QZS-1R (MICHIBIKI-1R)   
1 49336U 21096A   25052.99295969 -.00000242  00000+0  00000+0 0  9992
2 49336  36.4596  86.7468 0748332 269.2543 288.2668  1.00293322 12181
ZHONGXING-1D            
1 49505U 21114A   25052.82683670 -.00000327  00000+0  00000+0 0  9997
2 49505   0.0683 284.8893 0002461 279.0100  15.8779  1.00274703 12011
STPSAT-6                
1 49817U 21118A   25052.84256850 -.00000036  00000+0  00000+0 0  9992
2 49817   0.0356 267.9456 0002439  58.8169  16.8792  1.00272708 11764
LDPE-1                  
1 49818U 21118B   25053.08359123  .00000078  00000+0  00000+0 0  9992
2 49818   2.4791  84.9492 0002239 339.6285 322.2997  1.01210147 11815
EXPRESS AMU-7           
1 50001U 21123A   25052.87822515 -.00000233  00000+0  00000+0 0  9994
2 50001   0.0150 214.8895 0000334 255.7871 142.4961  1.00271473 11729
EXPRESS AMU-3           
1 50002U 21123B   25052.29348422 -.00000310  00000+0  00000+0 0  9997
2 50002   0.0126 158.0076 0000659  74.0176 127.9688  1.00270413  2214
TIANLIAN 2-02           
1 50005U 21124A   25052.67613575 -.00000004  00000+0  00000+0 0  9997
2 50005   0.0371 294.3834 0003948  14.7598 257.0473  1.00273044 11791
TURKSAT 5B              
1 50212U 21126A   25052.10893199  .00000157  00000+0  00000+0 0  9997
2 50212   0.0694 331.4737 0005389 357.1409 263.8536  1.00271924 11475
INMARSAT 6-F1           
1 50319U 21128A   25052.86017135 -.00000162  00000+0  00000+0 0  9995
2 50319   0.0142 122.4772 0000351 300.6966 122.2453  1.00271682 11447
SHIYAN 12 01 (SY-12 01) 
1 50321U 21129A   25052.92692389  .00000003  00000+0  00000+0 0  9999
2 50321   2.4308  86.8668 0004137 268.1331 201.6984  1.00067831 11683
SHIYAN 12 02 (SY-12 02) 
1 50322U 21129B   25052.93637580 -.00000232  00000+0  00000+0 0  9998
2 50322   2.4304  86.8769 0002621  11.4368 116.6088  1.00516550 11684
TJS-9                   
1 50574U 21135A   25052.89236506 -.00000289  00000+0  00000+0 0  9994
2 50574   0.0194 140.8592 0003463  30.4489  79.1308  1.00276627 11618
USA 324                 
1 51280U 22006A   25032.41385280 -.00000246  00000+0  00000+0 0  9990
2 51280   0.2937  83.0877 0002278 329.3349  11.3610  1.00313889  2382
USA 325                 
1 51281U 22006B   25032.18815030  .00000154  00000+0  00000+0 0  9993
2 51281   0.3373  87.7313 0001053 257.5491 238.6626  1.00393753 11103
GOES 18                 
1 51850U 22021A   25052.56672507  .00000107  00000+0  00000+0 0  9994
2 51850   0.0071 300.6784 0000611 118.5989 159.4537  1.00272561  1779
ZHONGXING-6D            
1 52255U 22038A   25052.23208735 -.00000343  00000+0  00000+0 0  9997
2 52255   0.0654 262.3852 0002635  41.3291  56.2412  1.00274429 10606
NILESAT 301             
1 52817U 22061A   25053.09975527 -.00000049  00000+0  00000+0 0  9995
2 52817   0.0545 327.1760 0006047  18.8697 195.0915  1.00272088  9918
CMS-02 (GSAT 24)        
1 52903U 22067A   25052.86017135 -.00000156  00000+0  00000+0 0  9992
2 52903   0.0948 269.6578 0003615   5.1037 269.9193  1.00273276  9798
MEASAT 3D               
1 52904U 22067B   25052.84905851 -.00000232  00000+0  00000+0 0  9997
2 52904   0.0546 303.0395 0003061  25.1301 220.9655  1.00273843  9839
SES-22                  
1 52933U 22071A   25052.62003840  .00000115  00000+0  00000+0 0  9996
2 52933   0.0247 109.8763 0001255 228.5937 257.5195  1.00269790  2707
WFOV (USA 332)          
1 52940U 22073A   25052.78655969 -.00000354  00000+0  00000+0 0  9994
2 52940   2.4704  84.8440 0002498 210.9777 258.5457  1.00272055  9550
TIANLIAN 2-03           
1 53100U 22078A   25052.54929400  .00000082  00000+0  00000+0 0  9993
2 53100   0.5857 280.2596 0003028  40.2005  39.4974  1.00273232  9737
SBIRS GEO-6 (USA 336)   
1 53355U 22092A   25052.92765080 -.00000278  00000+0  00000+0 0  9993
2 53355   4.1433 312.1396 0002216  17.1500 295.7201  1.00271403  9416
EUTELSAT KONNECT VHTS   
1 53765U 22110A   25052.91203024  .00000027  00000+0  00000+0 0  9994
2 53765   0.0530  97.2412 0002585 229.2641 156.5994  1.00271469  2019
ZHONGXING-1E            
1 53813U 22112A   25052.86558760 -.00000139  00000+0  00000+0 0  9999
2 53813   0.0087 123.8269 0003624 173.5434 247.6175  1.00269563  9036
SES-20                  
1 53960U 22123A   25052.65191782 -.00000090  00000+0  00000+0 0  9994
2 53960   0.0103 150.3502 0001558 281.8796 211.1405  1.00270507  8717
SES-21                  
1 53961U 22123B   25052.62751860  .00000080  00000+0  00000+0 0  9999
2 53961   0.0241  53.5670 0001010 271.7905 281.3037  1.00267699  2390
GALAXY 33 (G-33)        
1 54026U 22128A   25052.62630980  .00000089  00000+0  00000+0 0  9995
2 54026   0.0135 127.8582 0001771 213.3453 263.0350  1.00271251  8925
GALAXY 34 (G-34)        
1 54027U 22128B   25052.63012626  .00000069  00000+0  00000+0 0  9996
2 54027   0.0172 104.1400 0001539 225.1270 280.3359  1.00270528  8954
ANGOSAT 2               
1 54033U 22131A   25052.86013890  .00000145  00000+0  00000+0 0  9991
2 54033   0.0111 158.0695 0000768 297.0411  29.5279  1.00271895  8655
EUTELSAT HOTBIRD 13F    
1 54048U 22134A   25052.85239405  .00000097  00000+0  00000+0 0  9997
2 54048   0.0619 294.7250 0002132  72.5760 104.5435  1.00272615  8568
LDPE-2                  
1 54219U 22144A   25053.25599363  .00000125  00000+0  00000+0 0  9997
2 54219   4.4131  64.5211 0001683 336.6754  49.4768  0.99904956  6989
EUTELSAT HOTBIRD 13G    
1 54225U 22146A   25052.85241529  .00000097  00000+0  00000+0 0  9997
2 54225   0.0529 250.3023 0001913 280.2169 301.3417  1.00272229  2650
ZHONGXING-19            
1 54230U 22148A   25052.47785904 -.00000069  00000+0  00000+0 0  9993
2 54230   0.0326 264.8300 0007549 355.5974 226.6296  1.00272419  8561
GALAXY 31 (G-31)        
1 54243U 22153A   25052.63636395  .00000024  00000+0  00000+0 0  9990
2 54243   0.0089 170.8265 0001272 174.8181 274.2215  1.00271290  2319
GALAXY 32 (G-32)        
1 54244U 22153B   25052.07197477 -.00000163  00000+0  00000+0 0  9997
2 54244   0.0156  90.4650 0002842 260.8775  94.7861  1.00272064  8317
EUTELSAT 10B            
1 54259U 22157A   25053.07197403  .00000077  00000+0  00000+0 0  9990
2 54259   0.0504  96.1798 0001059   6.2772  85.6480  1.00266817  8230
GALAXY 35 (G-35)        
1 54741U 22170A   25052.82442503 -.00000152  00000+0  00000+0 0  9992
2 54741   0.0106 149.9846 0001905 190.4202  15.2488  1.00271961  8074
GALAXY 36 (G-36)        
1 54742U 22170B   25052.40714399 -.00000174  00000+0  00000+0 0  9996
2 54742   0.0150 121.1443 0002386 292.0316 155.9513  1.00271890  7956
METEOSAT-12 (MTG-I1)    
1 54743U 22170C   25053.09975527  .00000002  00000+0  00000+0 0  9994
2 54743   0.6425  40.6214 0001679 274.1993 233.0426  1.00272178  8160
SHIJIAN-23 (SJ-23)      
1 55131U 23002A   25052.92890558  .00000023  00000+0  00000+0 0  9995
2 55131   2.4771  84.5114 0002007 230.8148 341.9911  1.00433380  7698
APSTAR-6E               
1 55239U 23005A   25053.03933492 -.00000309  00000+0  00000+0 0  9993
2 55239   0.0584 257.3275 0001310 357.0280  45.9548  1.00266615 23517
USA 342                 
1 55263U 23008A   25050.38169713  .00000149  00000+0  00000+0 0  9996
2 55263   0.0063 112.7156 0000615  49.6352 148.4275  1.00272232  7676
LDPE-3A                 
1 55264U 23008B   25047.29941520  .00000111  00000+0  00000+0 0  9996
2 55264   0.9645  87.2249 0000994 359.7712 346.1471  1.01248024  6943
ELEKTRO-L 4             
1 55506U 23016A   25052.11914524 -.00000048  00000+0  00000+0 0  9995
2 55506   0.0709 297.4791 0000794   3.4245  59.0692  1.00270142  7506
AMAZONAS NEXUS          
1 55508U 23017A   25053.06558781 -.00000273  00000+0  00000+0 0  9992
2 55508   0.0375  47.9626 0004529 313.4795 113.3657  1.00270466  7443
ZHONGXING-26            
1 55686U 23023A   25052.88933589 -.00000344  00000+0  00000+0 0  9997
2 55686   0.0781  79.3682 0002929 317.9557 199.9351  1.00273089  7411
